SCD 1                   
1 22490U 93009B   26178.23279476  .00000390  00000+0  55544-4 0  9990
2 22490  24.9682 145.5483 0041648 244.1491 138.4681 14.46122241762573
TECHSAT 1B (GO-32)      
1 25397U 98043D   26178.46034744  .00000055  00000+0  44120-4 0  9990
2 25397  99.0071 171.4783 0001573 143.8362 216.2923 14.24430297452796
SCD 2                   
1 25504U 98060A   26178.26442800  .00000376  00000+0  53985-4 0  9998
2 25504  24.9967  10.0130 0016585 229.2368 291.7403 14.45529386461786
DLR-TUBSAT              
1 25757U 99029B   26178.48917811  .00000095  00000+0  35297-4 0  9991
2 25757  98.6698 174.3323 0013461 322.8666  37.1596 14.52429251434743
TERRA                   
1 25994U 99068A   26178.50409198  .00000371  00000+0  84556-4 0  9993
2 25994  97.9451 227.6411 0002391 160.1344 307.1952 14.61110705411114
MAROC-TUBSAT            
1 27004U 01056D   26178.50761769 -.00000017  00000+0  33257-4 0  9992
2 27004  99.8086 355.5618 0020558 115.6594 262.0843 13.70262892227601
AQUA                    
1 27424U 02022A   26178.53379611  .00000759  00000+0  16071-3 0  9992
2 27424  98.4281 148.0236 0000762  67.4659  43.7199 14.62172836284781
SHIYAN-1 (SY-1)         
1 28220U 04012A   26178.49088788  .00014043  00000+0  42886-3 0  9999
2 28220  97.8697 257.2298 0004702 355.1946   4.9249 15.34016595212678
AURA                    
1 28376U 04026A   26178.46217380  .00000740  00000+0  15952-3 0  9998
2 28376  98.3421 135.0007 0001169  83.5248 276.6085 14.61343594167714
IRS-P5 (CARTOSAT-1)     
1 28649U 05017A   26178.34582352  .00001557  00000+0  16253-3 0  9995
2 28649  97.5306 200.9495 0002300  67.3106 292.8356 14.91074793145334
SINAH 1                 
1 28893U 05043D   26178.51004705  .00000320  00000+0  70108-4 0  9992
2 28893  98.2872 312.8933 0013306 241.3819 118.6045 14.64164235102035
RESURS-DK 1             
1 29228U 06021A   26178.47954852  .00002242  00000+0  13184-3 0  9999
2 29228  69.9338 312.9106 0006737 287.0191  73.0237 15.13257713104132
ARIRANG-2 (KOMPSAT-2)   
1 29268U 06031A   26178.54482573  .00000039  00000+0  15730-4 0  9990
2 29268  97.8308   2.4905 0015570  44.7624  40.3115 14.64665199 62990
LAPAN-TUBSAT            
1 29709U 07001A   26178.48970596  .00000967  00000+0  11722-3 0  9994
2 29709  98.1342 177.9457 0012806 146.4846 213.7181 14.85961082 52684
HAIYANG-1B              
1 31113U 07010A   26178.49299032  .00000091  00000+0  50281-4 0  9998
2 31113  98.3499 159.9387 0013706 165.5533 194.6045 14.31029347  2117
COSMO-SKYMED 1          
1 31598U 07023A   26178.49460331  .00002878  00000+0  25435-3 0  9998
2 31598  97.8859  10.4374 0001767  88.2666 271.8758 14.97154881 31336
TERRASAR-X              
1 31698U 07026A   26177.61088571  .00000881  00000+0  45155-4 0  9991
2 31698  97.4450 185.1818 0001614  89.1456 270.9963 15.19154138 54659
WORLDVIEW-1 (WV-1)      
1 32060U 07041A   26178.53272718  .00006134  00000+0  25332-3 0  9993
2 32060  97.3884 298.1283 0001273 339.9864  20.1323 15.24376583 44452
YAOGAN-3                
1 32289U 07055A   26178.53087455  .00001999  00000+0  20882-3 0  9992
2 32289  97.8154 208.3067 0001778  80.3273 279.8146 14.90820189  7413
COSMO-SKYMED 2          
1 32376U 07059A   26178.49015291  .00000414  00000+0  58534-4 0  9994
2 32376  97.8887   1.9387 0001334  88.9397 271.1968 14.82153322  3539
RADARSAT-2              
1 32382U 07061A   26178.53344007  .00000306  00000+0  13573-3 0  9992
2 32382  98.5777 185.3179 0001309  84.3153 275.8179 14.29984870967434
CARTOSAT-2A             
1 32783U 08021A   26178.46359744  .00000799  00000+0  11409-3 0  9992
2 32783  97.7635 226.8217 0013366  79.0716 281.1999 14.79253932980325
HUANJING 1A (HJ-1A)     
1 33320U 08041A   26178.55010037  .00001082  00000+0  13566-3 0  9993
2 33320  97.6681 163.9877 0020552 102.8911 257.4601 14.84009418959947
HUANJING 1B (HJ-1B)     
1 33321U 08041B   26178.52390159  .00001309  00000+0  16415-3 0  9995
2 33321  97.6516 167.1028 0036967 147.2049 213.1471 14.83334452959943
GEOEYE 1                
1 33331U 08042A   26178.46723939  .00000436  00000+0  91081-4 0  9999
2 33331  98.1335 252.2700 0005220  39.9669 320.1917 14.64634904951653
THEOS                   
1 33396U 08049A   26178.46677088  .00000070  00000+0  52595-4 0  9991
2 33396  98.5573 235.4168 0001203  81.7232 278.4081 14.20134790919427
COSMO-SKYMED 3          
1 33412U 08054A   26178.56787703  .00003870  00000+0  26220-3 0  9999
2 33412  97.8272  37.3103 0014594 228.0850 131.9134 15.07009216958505
YAOGAN-4                
1 33446U 08061A   26178.42139645  .00001030  00000+0  13248-3 0  9997
2 33446  97.9307 111.8561 0015297  42.0299 318.2086 14.83219393947180
GOSAT (IBUKI)           
1 33492U 09002A   26178.29749782 -.00000066  00000+0 -32042-5 0  9993
2 33492  98.0902 289.2525 0001303  83.2041 276.9311 14.67538294932944
DEIMOS-1                
1 35681U 09041A   26178.56387036  .00000727  00000+0  11454-3 0  9992
2 35681  97.7407 335.3422 0002230 117.0422 243.1015 14.75248418908417
DUBAISAT-1              
1 35682U 09041B   26178.33164016  .00000900  00000+0  14080-3 0  9990
2 35682  98.0061 311.4787 0011236  44.3933 315.8174 14.75139144906597
